ISS (ZARYA)             
1 25544U 98067A   26002.82312794  .00015413  00000+0  28669-3 0  9993
2 25544  51.6329  38.0777 0007544 333.0714  26.9882 15.49046836546120
CSS (TIANHE)            
1 48274U 21035A   26003.10227955  .00032013  00000+0  38473-3 0  9994
2 48274  41.4661 246.9310 0010349 209.1942 150.8319 15.60118747267369
ISS (NAUKA)             
1 49044U 21066A   26002.82312794  .00015413  00000+0  28669-3 0  9999
2 49044  51.6329  38.0777 0007543 333.0714  26.9882 15.49046836230445
FREGAT DEB              
1 49271U 11037PF  26002.61984908  .00028799  00000+0  61645-1 0  9997
2 49271  51.6430 137.6925 0873853 269.6055  80.4748 12.34901136204517
CSS (WENTIAN)           
1 53239U 22085A   26002.91023684  .00029967  00000+0  36068-3 0  9990
2 53239  41.4660 248.0996 0010334 207.7869 152.2418 15.60104970173842
CSS (MENGTIAN)          
1 54216U 22143A   26002.91023684  .00029967  00000+0  36068-3 0  9991
2 54216  41.4660 248.0996 0010334 207.7869 152.2418 15.60104970158649
SHENZHOU-20 (SZ-20)     
1 63632U 25082A   26002.91023684  .00029967  00000+0  36068-3 0  9998
2 63632  41.4660 248.0996 0010334 207.7869 152.2418 15.60104970255302
PROGRESS-MS 31          
1 64751U 25146A   26002.82312794  .00015413  00000+0  28669-3 0  9994
2 64751  51.6329  38.0777 0007543 333.0714  26.9882 15.49046836  6752
TIANZHOU-9              
1 64786U 25149A   26002.91023684  .00029967  00000+0  36068-3 0  9993
2 64786  41.4660 248.0996 0010334 207.7869 152.2418 15.60104970255303
CREW DRAGON 11          
1 65077U 25166A   26002.82312794  .00015413  00000+0  28669-3 0  9998
2 65077  51.6329  38.0777 0007543 333.0714  26.9882 15.49046836  2143
DRAGON CRS-33           
1 65304U 25186A   26002.82312794  .00015413  00000+0  28669-3 0  9993
2 65304  51.6329  38.0777 0007543 333.0714  26.9882 15.49046836   111
PROGRESS-MS 32          
1 65586U 25204A   26002.82312794  .00015413  00000+0  28669-3 0  9996
2 65586  51.6329  38.0777 0007543 333.0714  26.9882 15.49046836   270
